NORAD_CAT_ID,OBJECT_NAME,OBJECT_TYPE,EPOCH,MEAN_MOTION,ECCENTRICITY,INCLINATION,RA_OF_ASC_NODE,ARG_OF_PERICENTER,MEAN_ANOMALY,BSTAR,MEAN_MOTION_DOT,MEAN_MOTION_DDOT,TLE_LINE0,TLE_LINE1,TLE_LINE2,SEMIMAJOR_AXIS,PERIOD,APOGEE,PERIGEE,DECAYED
53033.0,STARLINK-4167,PAYLOAD,2022-07-23 22:00:00,15.73158103,0.0001496999999999,53.2186,298.5334,39.2823,49.9543,0.00010879,0.00014647,0.0,0 STARLINK-4167,1 53033U 22076AZ  22204.91667824  .00014647  00000-0  10879-3 0  9994,2 53033  53.2186 298.5334 0001497  39.2823  49.9543 15.73158103  1305,6728.015,91.536,350.88699999999994,348.872,0.0
53033.0,STARLINK-4167,PAYLOAD,2022-07-24 14:00:01,15.73200902,0.0001659,53.2191,295.2359,39.9968,227.0082,4.6068e-05,5.85e-05,0.0,0 STARLINK-4167,1 53033U 22076AZ  22205.58334491  .00005850  00000-0  46068-4 0  9995,2 53033  53.2191 295.2359 0001659  39.9968 227.0082 15.73200902  1301,6727.893,91.533,350.874,348.641,0.0
53033.0,STARLINK-4167,PAYLOAD,2022-07-24 22:00:00,15.73205471,0.0001682,53.2192,293.5854,42.7102,313.2312,-0.00022206,-0.00031676,0.0,0 STARLINK-4167,1 53033U 22076AZ  22205.91667824 -.00031676  00000-0 -22206-3 0  9995,2 53033  53.2192 293.5854 0001682  42.7102 313.2312 15.73205471  3235,6727.88,91.533,350.876,348.61300000000006,0.0
53033.0,STARLINK-4167,PAYLOAD,2022-07-25 14:00:01,15.73194789,0.0001956999999999,53.2191,290.2879,43.1746,130.597,0.00029356,0.00040771,0.0,0 STARLINK-4167,1 53033U 22076AZ  22206.58334491  .00040771  00000-0  29356-3 0  9997,2 53033  53.2191 290.2879 0001957  43.1746 130.5970 15.73194789  3339,6727.91,91.533,351.092,348.458,0.0
53033.0,STARLINK-4167,PAYLOAD,2022-07-25 22:00:00,15.73250438,0.0001791,53.2186,288.6373,43.9722,218.7425,-9.4234e-05,-0.00013854,0.0,0 STARLINK-4167,1 53033U 22076AZ  22206.91667824 -.00013854  00000-0 -94234-4 0  9995,2 53033  53.2186 288.6373 0001791  43.9722 218.7425 15.73250438  1304,6727.751,91.53,350.821,348.411,0.0
53033.0,STARLINK-4167,PAYLOAD,2022-07-26 14:00:01,15.73191326,0.0001761,53.219,285.34,35.7966,44.8609,0.00036624,0.00051074,0.0,0 STARLINK-4167,1 53033U 22076AZ  22207.58334491  .00051074  00000-0  36624-3 0  9992,2 53033  53.2190 285.3400 0001761  35.7966  44.8609 15.73191326  3494,6727.92,91.534,350.97,348.6,0.0
53033.0,STARLINK-4167,PAYLOAD,2022-07-26 22:00:00,15.73270586,0.0001645,53.2191,283.6891,33.2241,136.3752,-0.00073239,-0.00102476,0.0,0 STARLINK-4167,1 53033U 22076AZ  22207.91667824 -.00102476  00000-0 -73239-3 0  9996,2 53033  53.2191 283.6891 0001645  33.2241 136.3752 15.73270586  1300,6727.694,91.529,350.666,348.452,0.0
53033.0,STARLINK-4167,PAYLOAD,2022-07-27 06:00:02,15.73196362,0.0001546,53.2191,282.0392,34.4061,224.2191,0.00018007,0.00024722,0.0,0 STARLINK-4167,1 53033U 22076AZ  22208.25002315  .00024722  00000-0  18007-3 0  9999,2 53033  53.2191 282.0392 0001546  34.4061 224.2191 15.73196362  3600,6727.906,91.533,350.811,348.73,0.0
53033.0,STARLINK-4167,PAYLOAD,2022-07-27 14:00:01,15.73214029,0.0001888,53.2187,280.3919,31.5514,315.9481,4.8132e-05,6.143e-05,0.0,0 STARLINK-4167,1 53033U 22076AZ  22208.58334491  .00006143  00000-0  48132-4 0  9998,2 53033  53.2187 280.3919 0001888  31.5514 315.9481 15.73214029  1307,6727.855,91.532,350.99,348.45,0.0
53033.0,STARLINK-4167,PAYLOAD,2022-07-27 22:00:00,15.73203601,0.0001766,53.2182,278.7409,36.424,40.0338,-0.00012556,-0.00018207,0.0,0 STARLINK-4167,1 53033U 22076AZ  22208.91667824 -.00018207  00000-0 -12556-3 0  9990,2 53033  53.2182 278.7409 0001766  36.4240  40.0338 15.73203601  1303,6727.885,91.533,350.93800000000016,348.56199999999984,0.0
53033.0,STARLINK-4167,PAYLOAD,2022-07-28 08:00:01,15.73220208,0.0001801,53.2183,276.6796,39.0413,238.5606,4.7381e-06,4.5e-07,0.0,0 STARLINK-4167,1 53033U 22076AZ  22209.33334491  .00000045  00000-0  47381-5 0  9993,2 53033  53.2183 276.6796 0001801  39.0413 238.5606 15.73220208  3778,6727.8380000000025,91.532,350.914,348.491,0.0
53033.0,STARLINK-4167,PAYLOAD,2022-07-28 14:00:01,15.73221772,0.0001938,53.2184,275.4441,33.602,220.7071,-0.00017646,-0.00025336,0.0,0 STARLINK-4167,1 53033U 22076AZ  22209.58334491 -.00025336  00000-0 -17646-3 0  9991,2 53033  53.2184 275.4441 0001938  33.6020 220.7071 15.73221772  1301,6727.833000000001,91.532,351.00199999999984,348.394,0.0
53033.0,STARLINK-4167,PAYLOAD,2022-07-28 22:00:00,15.73193482,0.0001769,53.2185,273.7929,31.0349,312.2263,0.00012387,0.00016794,0.0,0 STARLINK-4167,1 53033U 22076AZ  22209.91667824  .00016794  00000-0  12387-3 0  9990,2 53033  53.2185 273.7929 0001769  31.0349 312.2263 15.73193482  1308,6727.9140000000025,91.534,350.969,348.589,0.0
53033.0,STARLINK-4167,PAYLOAD,2022-07-29 14:00:01,15.73123073,0.0002420999999999,53.2181,270.4964,32.8437,128.0104,-0.00033242,-0.00046869,0.0,0 STARLINK-4167,1 53033U 22076AZ  22210.58334491 -.00046869  00000-0 -33242-3 0  9997,2 53033  53.2181 270.4964 0002421  32.8437 128.0104 15.73123073  3960,6728.115,91.538,351.608,348.351,0.0
53033.0,STARLINK-4167,PAYLOAD,2022-07-29 22:00:00,15.73017755,0.0002313,53.2177,268.8454,36.0783,213.6058,0.0011782,0.00166755,0.0,0 STARLINK-4167,1 53033U 22076AZ  22210.91667824  .00166755  00000-0  11782-2 0  9992,2 53033  53.2177 268.8454 0002313  36.0783 213.6058 15.73017755  1304,6728.415,91.544,351.836,348.724,0.0
53033.0,STARLINK-4167,PAYLOAD,2022-07-30 06:00:00,15.73194997,0.0002371,53.2178,267.1964,41.4504,296.993,0.0012546,0.0017923,0.0,0 STARLINK-4167,1 53033U 22076AZ  22211.25001157  .00179230  00000-0  12546-2 0  9992,2 53033  53.2178 267.1964 0002371  41.4504 296.9930 15.73194997  4072,6727.909000000002,91.533,351.37,348.17900000000014,0.0
53033.0,STARLINK-4167,PAYLOAD,2022-07-30 14:00:01,15.7329861,0.0002536,53.2177,265.5486,37.2057,30.23,0.0005099999999999,0.0007188,0.0,0 STARLINK-4167,1 53033U 22076AZ  22211.58334491  .00071880  00000-0  51000-3 0  9999,2 53033  53.2177 265.5486 0002536  37.2057  30.2300 15.73298610  4124,6727.614000000001,91.527,351.185,347.773,0.0
53033.0,STARLINK-4167,PAYLOAD,2022-07-30 22:00:00,15.73351231,0.0002307,53.218,263.8969,36.0008,120.5154,-0.00051447,-0.0007268,0.0,0 STARLINK-4167,1 53033U 22076AZ  22211.91667824 -.00072680  00000-0 -51447-3 0  9991,2 53033  53.2180 263.8969 0002307  36.0008 120.5154 15.73351231  4178,6727.464,91.524,350.881,347.777,0.0
53033.0,STARLINK-4167,PAYLOAD,2022-07-31 14:00:01,15.73221214,0.0002411999999999,53.2176,260.5993,27.3951,307.2315,0.00037789,0.000528,0.0,0 STARLINK-4167,1 53033U 22076AZ  22212.58334491  .00052800  00000-0  37789-3 0  9999,2 53033  53.2176 260.5993 0002412  27.3951 307.2315 15.73221214  1303,6727.835,91.532,351.32199999999995,348.077,0.0
53033.0,STARLINK-4167,PAYLOAD,2022-07-31 22:00:00,15.73241341,0.0002061,53.2175,258.9477,26.7783,36.8417,-0.00030486,-0.00043266,0.0,0 STARLINK-4167,1 53033U 22076AZ  22212.91667824 -.00043266  00000-0 -30486-3 0  9990,2 53033  53.2175 258.9477 0002061  26.7783  36.8417 15.73241341  4333,6727.776999999999,91.531,351.029,348.256,0.0
53033.0,STARLINK-4167,PAYLOAD,2022-08-01 14:00:01,15.73230449,0.0002264,53.2175,255.6506,21.2602,220.2781,0.00012469,0.00016937,0.0,0 STARLINK-4167,1 53033U 22076AZ  22213.58334491  .00016937  00000-0  12469-3 0  9999,2 53033  53.2175 255.6506 0002264  21.2602 220.2781 15.73230449  4447,6727.808000000001,91.531,351.19699999999995,348.15,0.0
53033.0,STARLINK-4167,PAYLOAD,2022-08-01 22:00:00,15.73188261,0.0002053,53.2179,253.9989,21.7137,308.8074,0.00017015,0.00023314,0.0,0 STARLINK-4167,1 53033U 22076AZ  22213.91667824  .00023314  00000-0  17015-3 0  9994,2 53033  53.2179 253.9989 0002053  21.7137 308.8074 15.73188261  1305,6727.929,91.534,351.175,348.412,0.0
53033.0,STARLINK-4167,PAYLOAD,2022-08-02 14:00:01,15.73190857,0.0002319999999999,53.2177,250.7017,15.9824,132.4147,-0.00010576,-0.00015433,0.0,0 STARLINK-4167,1 53033U 22076AZ  22214.58334491 -.00015433  00000-0 -10576-3 0  9999,2 53033  53.2177 250.7017 0002320  15.9824 132.4147 15.73190857  4595,6727.920999999999,91.534,351.347,348.225,0.0
53033.0,STARLINK-4167,PAYLOAD,2022-08-03 06:00:00,15.73214058,0.0002117,53.2179,247.4017,17.5891,308.6272,-7.4013e-05,-0.00011002,0.0,0 STARLINK-4167,1 53033U 22076AZ  22215.25001157 -.00011002  00000-0 -74013-4 0  9999,2 53033  53.2179 247.4017 0002117  17.5891 308.6272 15.73214058  4705,6727.855,91.532,351.144,348.296,0.0
53033.0,STARLINK-4167,PAYLOAD,2022-08-03 14:00:01,15.732147199999998,0.0002379999999999,53.2178,245.7533,17.1592,38.0015,0.00025533,0.00035389,0.0,0 STARLINK-4167,1 53033U 22076AZ  22215.58334491  .00035389  00000-0  25533-3 0  9999,2 53033  53.2178 245.7533 0002380  17.1592  38.0015 15.73214720  1302,6727.853,91.532,351.319,348.117,0.0
53033.0,STARLINK-4167,PAYLOAD,2022-08-03 22:00:01,15.73193332,0.0002190999999999,53.2183,244.1017,22.0451,122.1528,5.2793e-05,6.792e-05,0.0,0 STARLINK-4167,1 53033U 22076AZ  22215.91668981  .00006792  00000-0  52793-4 0  9995,2 53033  53.2183 244.1017 0002191  22.0451 122.1528 15.73193332  1306,6727.9140000000025,91.534,351.25300000000016,348.305,0.0
53033.0,STARLINK-4167,PAYLOAD,2022-08-04 06:00:00,15.73211689,0.0002381,53.2186,242.4533,25.9188,207.1333,-4.967099999999999e-06,-1.319e-05,0.0,0 STARLINK-4167,1 53033U 22076AZ  22216.25001157 -.00001319  00000-0 -49671-5 0  9993,2 53033  53.2186 242.4533 0002381  25.9188 207.1333 15.73211689  4861,6727.861999999999,91.533,351.329,348.125,0.0
53033.0,STARLINK-4167,PAYLOAD,2022-08-04 14:00:01,15.73226071,0.0002491,53.2182,240.8048,21.0817,300.901,-0.00038913,-0.00054948,0.0,0 STARLINK-4167,1 53033U 22076AZ  22216.58334491 -.00054948  00000-0 -38913-3 0  9990,2 53033  53.2182 240.8048 0002491  21.0817 300.9010 15.73226071  1309,6727.821,91.532,351.362,348.01,0.0
53033.0,STARLINK-4167,PAYLOAD,2022-08-04 22:00:00,15.73179275,0.0002184,53.2182,239.1533,23.7922,27.1609,0.00014449,0.00019688,0.0,0 STARLINK-4167,1 53033U 22076AZ  22216.91667824  .00019688  00000-0  14449-3 0  9994,2 53033  53.2182 239.1533 0002184  23.7922  27.1609 15.73179275  1309,6727.954000000002,91.534,351.289,348.35,0.0
